{
    "links": {
        "self": "http://www.neowsapp.com/rest/v1/neo/3648540?api_key=iIulBulltgU6a56xZRHN4H3l9WmuAYTsLGpBGhQ2"
    },
    "id": "3648540",
    "neo_reference_id": "3648540",
    "name": "(2013 SX19)",
    "designation": "2013 SX19",
    "nasa_jpl_url": "http://ssd.jpl.nasa.gov/sbdb.cgi?sstr=3648540",
    "absolute_magnitude_h": 23.1,
    "estimated_diameter": {
        "kilometers": {
            "estimated_diameter_min": 0.063760979,
            "estimated_diameter_max": 0.1425738833
        },
        "meters": {
            "estimated_diameter_min": 63.7609789875,
            "estimated_diameter_max": 142.5738833281
        },
        "miles": {
            "estimated_diameter_min": 0.0396192233,
            "estimated_diameter_max": 0.0885912765
        },
        "feet": {
            "estimated_diameter_min": 209.1895703015,
            "estimated_diameter_max": 467.7620993781
        }
    },
    "is_potentially_hazardous_asteroid": false,
    "close_approach_data": [
        {
            "close_approach_date": "2013-09-20",
            "close_approach_date_full": "2013-Sep-20 20:50",
            "epoch_date_close_approach": 1379710200000,
            "relative_velocity": {
                "kilometers_per_second": "15.8639907157",
                "kilometers_per_hour": "57110.366576502",
                "miles_per_hour": "35486.1608319381"
            },
            "miss_distance": {
                "astronomical": "0.0819621524",
                "lunar": "31.8832772836",
                "kilometers": "12261363.419655388",
                "miles": "7618857.9378368344"
            },
            "orbiting_body": "Earth"
        },
        {
            "close_approach_date": "2015-10-10",
            "close_approach_date_full": "2015-Oct-10 05:20",
            "epoch_date_close_approach": 1444454400000,
            "relative_velocity": {
                "kilometers_per_second": "23.1356346887",
                "kilometers_per_hour": "83288.284879437",
                "miles_per_hour": "51752.1012352257"
            },
            "miss_distance": {
                "astronomical": "0.4557930561",
                "lunar": "177.3034988229",
                "kilometers": "68185670.353350507",
                "miles": "42368610.8989787166"
            },
            "orbiting_body": "Earth"
        }
    ],
    "orbital_data": {
        "orbit_id": "14",
        "orbit_determination_date": "2017-04-06 08:44:35",
        "first_observation_date": "2013-09-24",
        "last_observation_date": "2013-10-12",
        "data_arc_in_days": 18,
        "observations_used": 71,
        "orbit_uncertainty": "8",
        "minimum_orbit_intersection": ".07806",
        "jupiter_tisserand_invariant": "4.122",
        "epoch_osculation": "2456565.5",
        "eccentricity": ".3572385824612212",
        "semi_major_axis": "1.626831148044248",
        "inclination": "27.86352954388768",
        "ascending_node_longitude": "1.293325934333823",
        "orbital_period": "757.9004158990764",
        "perihelion_distance": "1.04566429481316",
        "perihelion_argument": "329.5130060305996",
        "aphelion_distance": "2.207998001275337",
        "perihelion_time": "2456529.530955875596",
        "mean_anomaly": "17.08516793650861",
        "mean_motion": ".4749964407565892",
        "equinox": "J2000",
        "orbit_class": {
            "orbit_class_type": "AMO",
            "orbit_class_description": "Near-Earth asteroid orbits similar to that of 1221 Amor",
            "orbit_class_range": "1.017 AU < q (perihelion) < 1.3 AU"
        }
    },
    "is_sentry_object": false
}